ALOS-4 (DAICHI-4)       
1 60182U 24123A   24231.82521694  .00006061  00000+0  81775-3 0  9991
2 60182  97.9222 327.5877 0001572  98.7029 261.4361 14.79473030  7209
